H1 CPF 01  gfz 2021 12 21 13  8552 tandemx   
H2 1003001  6202 36605    2021 12 21 12 59 42 2021 12 26 00 00 42   120 1 1  0 0 0
H9
10 0 59571  56142.000000  0   -1933237.237  -2425321.294   6140322.632
10 0 59571  56262.000000  0   -2631387.663  -2827006.693   5693838.818
10 0 59571  56382.000000  0   -3290079.127  -3167448.026   5147212.399
10 0 59571  56502.000000  0   -3896669.470  -3441480.443   4510023.684
10 0 59571  56622.000000  0   -4439342.234  -3645310.717   3793455.218
10 0 59571  56742.000000  0   -4907341.840  -3776570.770   3010098.617
10 0 59571  56862.000000  0   -5291192.774  -3834343.067   2173735.033
10 0 59571  56982.000000  0   -5582897.994  -3819157.171   1299090.203
10 0 59571  57102.000000  0   -5776109.351  -3732955.425    401569.254
10 0 59571  57222.000000  0   -5866266.601  -3579029.295   -503022.050
10 0 59571  57342.000000  0   -5850701.302  -3361928.359  -1398764.815
10 0 59571  57462.000000  0   -5728701.435  -3087342.922  -2269917.301
10 0 59571  57582.000000  0   -5501535.251  -2761964.151  -3101198.363
10 0 59571  57702.000000  0   -5172436.186  -2393326.673  -3878059.496
10 0 59571  57822.000000  0   -4746549.000  -1989636.952  -4586939.839
10 0 59571  57942.000000  0   -4230839.643  -1559592.647  -5215499.869
10 0 59571  58062.000000  0   -3633971.010  -1112196.624  -5752830.093
10 0 59571  58182.000000  0   -2966148.171   -656569.939  -6189630.636
10 0 59571  58302.000000  0   -2238937.618   -201768.386  -6518360.775
10 0 59571  58422.000000  0   -1465063.333    243393.714  -6733357.531
10 0 59571  58542.000000  0    -658184.632    670509.187  -6830921.921
10 0 59571  58662.000000  0     167340.261   1071732.435  -6809375.518
10 0 59571  58782.000000  0     996702.675   1439919.200  -6669085.952
10 0 59571  58902.000000  0    1814902.849   1768750.646  -6412464.039
10 0 59571  59022.000000  0    2607015.997   2052840.904  -6043926.757
10 0 59571  59142.000000  0    3358460.673   2287824.856  -5569828.720
10 0 59571  59262.000000  0    4055264.135   2470425.365  -4998362.730
10 0 59571  59382.000000  0    4684323.759   2598499.797  -4339430.605
10 0 59571  59502.000000  0    5233658.687   2671063.984  -3604481.733
10 0 59571  59622.000000  0    5692644.590   2688292.750  -2806322.434
10 0 59571  59742.000000  0    6052229.004   2651497.353  -1958899.722
10 0 59571  59862.000000  0    6305120.590   2563078.926  -1077058.255
10 0 59571  59982.000000  0    6445945.599   2426458.610   -176278.397
10 0 59571  60102.000000  0    6471368.726   2245985.870    727601.894
10 0 59571  60222.000000  0    6380171.802   2026826.353   1618672.374
10 0 59571  60342.000000  0    6173293.605   1774834.771   2481238.386
10 0 59571  60462.000000  0    5853824.462   1496412.605   3300107.181
10 0 59571  60582.000000  0    5426957.079   1198356.012   4060862.905
10 0 59571  60702.000000  0    4899894.239    887697.622   4750125.322
10 0 59571  60822.000000  0    4281718.787    571547.165   5355785.856
10 0 59571  60942.000000  0    3583227.680    256933.240   5867220.168
10 0 59571  61062.000000  0    2816732.971    -49349.153   6275470.102
10 0 59571  61182.000000  0    1995838.294   -340880.933   6573393.718
10 0 59571  61302.000000  0    1135193.617   -611750.245   6755785.116
10 0 59571  61422.000000  0     250230.411   -856670.611   6819461.004
10 0 59571  61542.000000  0    -643116.266  -1071082.774   6763311.571
10 0 59571  61662.000000  0   -1528693.964  -1251239.443   6588317.828
10 0 59571  61782.000000  0   -2390423.487  -1394270.723   6297534.473
10 0 59571  61902.000000  0   -3212588.770  -1498229.033   5896040.278
10 0 59571  62022.000000  0   -3980125.501  -1562114.466   5390857.367
10 0 59571  62142.000000  0   -4678902.506  -1585880.496   4790834.412
10 0 59571  62262.000000  0   -5295988.884  -1570418.271   4106496.534
10 0 59571  62382.000000  0   -5819901.084  -1517519.577   3349863.475
10 0 59571  62502.000000  0   -6240824.631  -1429819.427   2534240.537
10 0 59571  62622.000000  0   -6550808.238  -1310720.503   1673985.263
10 0 59571  62742.000000  0   -6743924.212  -1164300.239    784249.505
10 0 59571  62862.000000  0   -6816387.112   -995202.183   -119295.222
10 0 59571  62982.000000  0   -6766629.890   -808514.917  -1020742.489
10 0 59571  63102.000000  0   -6595334.977   -609641.776  -1904240.163
10 0 59571  63222.000000  0   -6305419.912   -404164.787  -2754276.131
10 0 59571  63342.000000  0   -5901980.242   -197707.253  -3555956.623
10 0 59571  63462.000000  0   -5392187.853      4203.638  -4295270.885
10 0 59571  63582.000000  0   -4785149.708    196269.551  -4959334.274
10 0 59571  63702.000000  0   -4091732.697    373546.042  -5536607.476
10 0 59571  63822.000000  0   -3324357.841    531556.504  -6017088.752
10 0 59571  63942.000000  0   -2496769.336    666392.711  -6392475.406
10 0 59571  64062.000000  0   -1623785.482    774800.911  -6656295.166
10 0 59571  64182.000000  0    -721033.232    854252.092  -6804007.466
10 0 59571  64302.000000  0     195327.490    902995.374  -6833071.627
10 0 59571  64422.000000  0    1108884.816    920093.231  -6742985.910
10 0 59571  64542.000000  0    2003262.211    905438.708  -6535297.971
10 0 59571  64662.000000  0    2862406.384    859754.600  -6213581.061
10 0 59571  64782.000000  0    3670870.937    784574.354  -5783378.486
10 0 59571  64902.000000  0    4414091.026    682204.253  -5252117.269
10 0 59571  65022.000000  0    5078647.068    555668.030  -4628991.854
10 0 59571  65142.000000  0    5652513.165    408634.987  -3924816.122
10 0 59571  65262.000000  0    6125283.268    245331.848  -3151844.945
10 0 59571  65382.000000  0    6488370.968     70440.732  -2323568.644
10 0 59571  65502.000000  0    6735179.300   -111015.254  -1454481.266
10 0 59571  65622.000000  0    6861232.854   -293795.935   -559825.616
10 0 59571  65742.000000  0    6864269.060   -472574.119    344677.772
10 0 59571  65862.000000  0    6744286.968   -642069.606   1243113.473
10 0 59571  65982.000000  0    6503550.240   -797183.098   2119659.674
10 0 59571  66102.000000  0    6146544.614   -933126.471   2958876.784
10 0 59571  66222.000000  0    5679888.464  -1045545.952   3745987.344
10 0 59571  66342.000000  0    5112203.314  -1130634.973   4467141.276
10 0 59571  66462.000000  0    4453945.025  -1185235.124   5109663.054
10 0 59571  66582.000000  0    3717200.781  -1206920.354   5662274.025
10 0 59571  66702.000000  0    2915457.900  -1194064.042   6115287.690
10 0 59571  66822.000000  0    2063349.088  -1145888.369   6460774.196
10 0 59571  66942.000000  0    1176380.631  -1062494.512   6692693.769
10 0 59571  67062.000000  0     270646.084   -944872.764   6806996.978
10 0 59571  67182.000000  0    -637467.074   -794892.297   6801689.794
10 0 59571  67302.000000  0   -1531572.888   -615271.677   6676865.154
10 0 59571  67422.000000  0   -2395581.078   -409529.721   6434701.216
10 0 59571  67542.000000  0   -3213985.358   -181917.657   6079426.365
10 0 59571  67662.000000  0   -3972143.063     62666.393   5617251.113
10 0 59571  67782.000000  0   -4656541.528    318779.180   5056265.790
10 0 59571  67902.000000  0   -5255045.438    580548.430   4406304.615
10 0 59571  68022.000000  0   -5757120.619    841801.502   3678777.625
10 0 59571  68142.000000  0   -6154028.167   1096203.994   2886472.915
10 0 59571  68262.000000  0   -6438986.381   1337405.271   2043332.371
10 0 59571  68382.000000  0   -6607295.521   1559187.002   1164203.634
10 0 59571  68502.000000  0   -6656422.671   1755611.791    264572.702
10 0 59571  68622.000000  0   -6586041.961   1921167.732   -639717.697
10 0 59571  68742.000000  0   -6398029.632   2050904.336  -1532756.098
10 0 59571  68862.000000  0   -6096415.549   2140557.381  -2398850.251
10 0 59571  68982.000000  0   -5687291.818   2186659.820  -3222810.636
10 0 59571  69102.000000  0   -5178679.668   2186634.815  -3990221.709
10 0 59571  69222.000000  0   -4580360.422   2138868.737  -4687694.130
10 0 59571  69342.000000  0   -3903675.832   2042763.458  -5303094.179
10 0 59571  69462.000000  0   -3161303.481   1898767.277  -5825746.537
10 0 59571  69582.000000  0   -2367013.415   1708384.230  -6246609.422
10 0 59571  69702.000000  0   -1535408.741   1474161.558  -6558420.644
10 0 59571  69822.000000  0    -681656.526   1199655.758  -6755810.355
10 0 59571  69942.000000  0     178784.611    889378.285  -6835383.145
10 0 59571  70062.000000  0    1030436.903    548722.769  -6795770.043
10 0 59571  70182.000000  0    1858075.829    183873.212  -6637651.801
10 0 59571  70302.000000  0    2646996.551   -198305.653  -6363747.548
10 0 59571  70422.000000  0    3383270.312   -590393.353  -5978773.625
10 0 59571  70542.000000  0    4053987.891   -984553.187  -5489369.680
10 0 59571  70662.000000  0    4647486.047  -1372683.736  -4903995.753
10 0 59571  70782.000000  0    5153555.771  -1746581.732  -4232797.983
10 0 59571  70902.000000  0    5563625.830  -2098111.718  -3487443.156
10 0 59571  71022.000000  0    5870918.364  -2419379.441  -2680924.213
10 0 59571  71142.000000  0    6070572.151  -2702905.521  -1827338.360
10 0 59571  71262.000000  0    6159729.492  -2941794.845   -941641.754
10 0 59571  71382.000000  0    6137585.009  -3129897.642    -39385.380
10 0 59571  71502.000000  0    6005393.700  -3261958.146    863563.425
10 0 59571  71622.000000  0    5766438.618  -3333746.967   1751307.927
10 0 59571  71742.000000  0    5425955.509  -3342172.614   2608212.295
10 0 59571  71862.000000  0    4991017.792  -3285369.679   3419184.824
10 0 59571  71982.000000  0    4470386.002  -3162760.769   4169950.522
10 0 59571  72102.000000  0    3874326.411  -2975091.951   4847305.763
10 0 59571  72222.000000  0    3214401.256  -2724441.622   5439353.161
10 0 59571  72342.000000  0    2503236.255  -2414200.263   5935708.456
10 0 59571  72462.000000  0    1754273.098  -2049023.831   6327678.271
10 0 59571  72582.000000  0     981510.841  -1634762.109   6608406.749
99
